      2.10          N: GNSS NAV DATA                        RINEX VERSION / TYPE
fic2rin                                 08/18/2022 00:17:32 PGM / RUN BY / DATE
                                                            END OF HEADER
6  22  8 17  1 59 44.0  .427823979408D-03  .140971678775D-10  .000000000000D+00
     .700000000000D+01 -.143750000000D+01  .356264839861D-08  .248444778821D+01
     .614672899246D-07  .243820808828D-02  .103842467070D-04  .515378379440D+04
     .266384000000D+06 -.689178705215D-07  .110883862753D+01  .000000000000D+00
     .987563754509D+00  .193312500000D+03 -.891677104993D+00 -.755638618239D-08
     .143577409147D-09  .100000000000D+01  .222300000000D+04  .000000000000D+00
     .240000000000D+01  .000000000000D+00  .372529029846D-08  .700000000000D+01
     .259200000000D+06  .400000000000D+01
12 22  8 17  8  0  0.0 -.263605266809D-03 -.591171556152D-11  .000000000000D+00
     .790000000000D+02  .507187500000D+02  .467412326742D-08 -.220382967629D+01
     .269152224064D-05  .849121855572D-02  .489689409733D-05  .515375387001D+04
     .288000000000D+06  .106170773506D-06 -.920228698670D+00  .782310962677D-07
     .968076009189D+00  .287281250000D+03  .131599741406D+01 -.812283834882D-08
     .227866634417D-09  .100000000000D+01  .222300000000D+04  .000000000000D+00
     .240000000000D+01  .000000000000D+00 -.125728547573D-07  .790000000000D+02
     .280800000000D+06  .400000000000D+01
8  22  8 17  8  0  0.0 -.808127224445D-04 -.159161572810D-11  .000000000000D+00
     .590000000000D+02 -.423750000000D+02  .480770026001D-08  .133351261477D+01
    -.197067856789D-05  .743004225660D-02  .576116144657D-05  .515357573891D+04
     .288000000000D+06  .763684511185D-07  .332222361366D-01  .113621354103D-06
     .962794010338D+00  .267656250000D+03  .166147490310D+00 -.839606401548D-08
    -.437161066656D-09  .100000000000D+01  .222300000000D+04  .000000000000D+00
     .240000000000D+01  .000000000000D+00  .512227416039D-08  .590000000000D+02
     .280800000000D+06  .400000000000D+01
4  22  8 17  8  0  0.0 -.131898093969D-03  .511590769747D-11  .000000000000D+00
     .710000000000D+02 -.475937500000D+02  .449232998072D-08  .100754002669D+01
    -.240281224251D-05  .195085839368D-02  .790134072304D-05  .515376058769D+04
     .288000000000D+06 -.558793544769D-08 -.305134289954D+01  .119209289551D-06
     .962061129342D+00  .227500000000D+03 -.305995026040D+01 -.802461997192D-08
    -.225366530278D-09  .100000000000D+01  .222300000000D+04  .000000000000D+00
     .240000000000D+01  .000000000000D+00 -.465661287308D-08  .710000000000D+02
     .280800000000D+06  .400000000000D+01
7  22  8 17  8  0  0.0  .314052216709D-03 -.227373675443D-11  .000000000000D+00
     .370000000000D+02  .411562500000D+02  .455447542647D-08 -.152356902875D+01
     .213086605072D-05  .163742938312D-01  .104941427708D-04  .515364714241D+04
     .288000000000D+06  .350177288055D-06 -.203428793223D+01 -.521540641785D-07
     .950541072251D+00  .163843750000D+03 -.224681935563D+01 -.789711466081D-08
     .180364655769D-09  .100000000000D+01  .222300000000D+04  .000000000000D+00
     .240000000000D+01  .000000000000D+00 -.111758708954D-07  .370000000000D+02
     .280800000000D+06  .400000000000D+01
10 22  8 17  8  0  0.0 -.530961435288D-03 -.134150468512D-10  .000000000000D+00
     .121000000000D+03  .781250000000D+01  .427374944739D-08 -.287728459486D+01
     .387430191040D-06  .778926990461D-02  .600889325142D-05  .515367819214D+04
     .288000000000D+06  .931322574615D-08  .214780871477D+01 -.335276126862D-07
     .974639373596D+00  .270500000000D+03 -.250976971081D+01 -.790711507737D-08
     .270011247052D-09  .100000000000D+01  .222300000000D+04  .000000000000D+00
     .240000000000D+01  .000000000000D+00  .232830643654D-08  .121000000000D+03
     .280800000000D+06  .400000000000D+01
31 22  8 17  8  0  0.0 -.189948361367D-03 -.136424205266D-11  .000000000000D+00
     .950000000000D+02  .396562500000D+02  .450733060555D-08 -.205782675958D+01
     .162422657013D-05  .104341325350D-01  .106152147055D-04  .515356813240D+04
     .288000000000D+06  .484287738800D-07 -.201545002098D+01 -.152736902237D-06
     .954701441570D+00  .171281250000D+03  .410871998674D+00 -.788747140199D-08
     .235366946835D-09  .100000000000D+01  .222300000000D+04  .000000000000D+00
     .340000000000D+01  .000000000000D+00 -.135041773319D-07  .950000000000D+02
     .280800000000D+06  .400000000000D+01
30 22  8 17  8  0  0.0 -.535986851901D-03 -.568434188608D-12  .000000000000D+00
     .770000000000D+02  .313125000000D+02  .487913180685D-08 -.161324786879D+01
     .140070915222D-05  .596234318800D-02  .106636434793D-04  .515373207664D+04
     .288000000000D+06  .391155481339D-07 -.202390625509D+01 -.987201929092D-07
     .935676186097D+00  .156218750000D+03 -.265498373871D+01 -.815641117584D-08
     .159292349451D-09  .100000000000D+01  .222300000000D+04  .000000000000D+00
     .240000000000D+01  .000000000000D+00  .372529029846D-08  .770000000000D+02
     .280800000000D+06  .400000000000D+01
15 22  8 17  8  0  0.0 -.366047024727D-04  .306954461848D-11  .000000000000D+00
     .880000000000D+02 -.431562500000D+02  .532236455499D-08  .380588829327D+00
    -.209547579288D-05  .144113959977D-01  .673905014992D-05  .515360079193D+04
     .288000000000D+06 -.245869159698D-06  .306660920456D+01  .875443220139D-07
     .931154503808D+00  .236500000000D+03  .111891187035D+01 -.870857703290D-08
    -.235366946835D-09  .100000000000D+01  .222300000000D+04  .000000000000D+00
     .240000000000D+01  .000000000000D+00 -.107102096081D-07  .880000000000D+02
     .280800000000D+06  .400000000000D+01
9  22  8 17  8  0  0.0 -.307234935462D-03  .432009983342D-11  .000000000000D+00
     .980000000000D+02 -.488750000000D+02  .464412201775D-08  .181182131576D+01
    -.252574682236D-05  .236049050000D-02  .749155879021D-05  .515377362633D+04
     .288000000000D+06  .111758708954D-06 -.310574432004D+01  .651925802231D-07
     .955159653845D+00  .230968750000D+03  .190517432867D+01 -.811855245601D-08
    -.179293182566D-09  .100000000000D+01  .222300000000D+04  .000000000000D+00
     .240000000000D+01  .000000000000D+00  .139698386192D-08  .980000000000D+02
     .280800000000D+06  .400000000000D+01
6  22  8 17  8  0  0.0  .428128056228D-03  .140971678775D-10  .000000000000D+00
     .540000000000D+02 -.147500000000D+02  .382587364871D-08 -.645903924285D+00
    -.681728124619D-06  .243798457086D-02  .947527587414D-05  .515378248405D+04
     .288000000000D+06 -.186264514923D-07  .110867330755D+01 -.186264514923D-08
     .987564194847D+00  .213062500000D+03 -.891851888594D+00 -.774817988565D-08
     .350014579512D-10  .100000000000D+01  .222300000000D+04  .000000000000D+00
     .240000000000D+01  .000000000000D+00  .372529029846D-08  .540000000000D+02
     .280800000000D+06  .400000000000D+01
13 22  8 17  8  0  0.0  .369463115931D-03  .716227077646D-11  .000000000000D+00
     .780000000000D+02 -.438437500000D+02  .433053752713D-08  .899374170933D+00
    -.233016908169D-05  .628471432719D-02  .831112265587D-05  .515367787361D+04
     .288000000000D+06 -.894069671631D-07 -.295003343945D+01 -.167638063431D-07
     .969348073512D+00  .224718750000D+03  .924888359004D+00 -.804104922769D-08
    -.270368404786D-09  .100000000000D+01  .222300000000D+04  .000000000000D+00
     .240000000000D+01  .000000000000D+00 -.111758708954D-07  .780000000000D+02
     .280800000000D+06  .400000000000D+01
11 22  8 17  8  0  0.0 -.115223228931D-04 -.125055521494D-11  .000000000000D+00
     .196000000000D+03 -.131875000000D+02  .441089801732D-08  .120059988025D+01
    -.637024641037D-06  .654236297123D-03  .894069671631D-05  .515362279129D+04
     .288000000000D+06  .316649675369D-07  .115646763556D+01  .186264514923D-08
     .963465485348D+00  .208750000000D+03  .298668712403D+01 -.802390565645D-08
     .157149403046D-10  .100000000000D+01  .222300000000D+04  .000000000000D+00
     .240000000000D+01  .000000000000D+00 -.838190317154D-08  .452000000000D+03
     .280800000000D+06  .400000000000D+01
27 22  8 17  8  0  0.0  .218868255615D-03 -.193267624127D-11  .000000000000D+00
     .470000000000D+02 -.430625000000D+02  .460090593191D-08  .136140772542D+01
    -.210106372833D-05  .105389551027D-01  .634416937828D-05  .515365973854D+04
     .288000000000D+06 -.150874257088D-06  .541528443919D-01  .249594449997D-06
     .971578994325D+00  .264000000000D+03  .689632536706D+00 -.833641867387D-08
    -.379301513716D-09  .100000000000D+01  .222300000000D+04  .000000000000D+00
     .240000000000D+01  .000000000000D+00  .139698386192D-08  .470000000000D+02
     .280800000000D+06  .400000000000D+01
19 22  8 17  8  0  0.0  .198288820684D-03  .500222085975D-11  .000000000000D+00
     .410000000000D+02 -.395000000000D+02  .424946272147D-08 -.271265084587D+01
    -.189617276192D-05  .921353953891D-02  .636279582977D-05  .515371713829D+04
     .288000000000D+06  .279396772385D-07  .162554159742D+00  .149011611938D-06
     .977021056894D+00  .264906250000D+03  .215194038018D+01 -.789211445253D-08
    -.277154401736D-09  .100000000000D+01  .222300000000D+04  .000000000000D+00
     .240000000000D+01  .000000000000D+00 -.153668224812D-07  .410000000000D+02
     .280800000000D+06  .400000000000D+01
21 22  8 17  8  0  0.0  .160417519510D-03 -.341060513165D-12  .000000000000D+00
     .960000000000D+02 -.327187500000D+02  .440946938638D-08  .140618674228D+01
    -.191852450371D-05  .242910339730D-01  .932067632675D-05  .515371809578D+04
     .288000000000D+06  .549480319023D-06  .102108197847D+01 -.577419996262D-07
     .960599663940D+00  .189031250000D+03 -.908780337732D+00 -.787782814316D-08
    -.171078554680D-09  .100000000000D+01  .222300000000D+04  .000000000000D+00
     .240000000000D+01  .000000000000D+00 -.102445483208D-07  .960000000000D+02
     .280800000000D+06  .400000000000D+01
